[{"OBJECT_NAME":"STARLINK-32552","OBJECT_ID":"2024-225M","EPOCH":"2026-03-09T15:50:48.714720","MEAN_MOTION":14.98571867,"ECCENTRICITY":0.0006013,"INCLINATION":70.0041,"RA_OF_ASC_NODE":164.4162,"ARG_OF_PERICENTER":234.2276,"MEAN_ANOMALY":125.8325,"EPHEMERIS_TYPE":0,"CLASSIFICATION_TYPE":"U","NORAD_CAT_ID":62174,"ELEMENT_SET_NO":999,"REV_AT_EPOCH":6987,"BSTAR":0.0026247,"MEAN_MOTION_DOT":0.00031571,"MEAN_MOTION_DDOT":0},{"OBJECT_NAME":"CZ-6A DEB","OBJECT_ID":"2024-140JQ","EPOCH":"2026-03-09T16:05:49.477056","MEAN_MOTION":15.15394204,"ECCENTRICITY":0.00800164,"INCLINATION":89.0638,"RA_OF_ASC_NODE":284.0631,"ARG_OF_PERICENTER":105.771,"MEAN_ANOMALY":255.2376,"EPHEMERIS_TYPE":0,"CLASSIFICATION_TYPE":"U","NORAD_CAT_ID":60861,"ELEMENT_SET_NO":999,"REV_AT_EPOCH":8511,"BSTAR":0.0025246282,"MEAN_MOTION_DOT":0.00051962,"MEAN_MOTION_DDOT":0}]
